[{"OBJECT_NAME":"TIANMU-1 07","OBJECT_ID":"2023-101A","EPOCH":"2026-03-06T13:47:20.454720","MEAN_MOTION":15.29118809,"ECCENTRICITY":0.00046097,"INCLINATION":97.2728,"RA_OF_ASC_NODE":118.5929,"ARG_OF_PERICENTER":142.4105,"MEAN_ANOMALY":217.7458,"EPHEMERIS_TYPE":0,"CLASSIFICATION_TYPE":"U","NORAD_CAT_ID":57399,"ELEMENT_SET_NO":999,"REV_AT_EPOCH":14596,"BSTAR":0.00029794732,"MEAN_MOTION_DOT":8.352e-5,"MEAN_MOTION_DDOT":0},{"OBJECT_NAME":"STARLINK-36492","OBJECT_ID":"2026-002AD","EPOCH":"2026-03-09T10:07:13.094112","MEAN_MOTION":15.27577988,"ECCENTRICITY":5.377e-5,"INCLINATION":43.0032,"RA_OF_ASC_NODE":327.1487,"ARG_OF_PERICENTER":0.4165,"MEAN_ANOMALY":359.6687,"EPHEMERIS_TYPE":0,"CLASSIFICATION_TYPE":"U","NORAD_CAT_ID":67332,"ELEMENT_SET_NO":999,"REV_AT_EPOCH":1119,"BSTAR":0.00089136439,"MEAN_MOTION_DOT":0.00024346,"MEAN_MOTION_DDOT":0}]
