TIANMU-1 07             
1 57399U 23101A   26065.57454230  .00008352  00000+0  29795-3 0  9991
2 57399  97.2728 118.5929 0004609 142.4105 217.7458 15.29118809145964
STARLINK-36492          
1 67332U 26002AD  26068.42167933  .00024346  00000+0  89136-3 0  9996
2 67332  43.0032 327.1487 0000537   0.4165 359.6687 15.27577988 11193
